[{"OBJECT_NAME":"TEVEL2-7","OBJECT_ID":"2025-052AE","EPOCH":"2026-03-09T15:52:01.887744","MEAN_MOTION":15.28414096,"ECCENTRICITY":0.00081048,"INCLINATION":97.4054,"RA_OF_ASC_NODE":324.3041,"ARG_OF_PERICENTER":124.683,"MEAN_ANOMALY":235.5175,"EPHEMERIS_TYPE":0,"CLASSIFICATION_TYPE":"U","NORAD_CAT_ID":63238,"ELEMENT_SET_NO":999,"REV_AT_EPOCH":5480,"BSTAR":0.00069668191,"MEAN_MOTION_DOT":0.00019244,"MEAN_MOTION_DDOT":0},{"OBJECT_NAME":"STARLINK-34198","OBJECT_ID":"2025-127U","EPOCH":"2026-03-09T07:30:21.320064","MEAN_MOTION":15.27593906,"ECCENTRICITY":0.00013649,"INCLINATION":42.9952,"RA_OF_ASC_NODE":181.5401,"ARG_OF_PERICENTER":174.3802,"MEAN_ANOMALY":185.7065,"EPHEMERIS_TYPE":0,"CLASSIFICATION_TYPE":"U","NORAD_CAT_ID":64388,"ELEMENT_SET_NO":999,"REV_AT_EPOCH":4241,"BSTAR":0.0010034352,"MEAN_MOTION_DOT":0.00027465,"MEAN_MOTION_DDOT":0}]
